PRAETORIAN SDA_617      
1 65580U 25203R   26063.55113613  .00000069  00000+0  52134-4 0  9991
2 65580  81.3011 107.6443 0008707 113.6053 246.6018 13.83190693 24226
PRAETORIAN SDA_618      
1 65581U 25203S   26063.49824910  .00000340  00000+0  29107-3 0  9999
2 65581  81.2996 107.5462 0010917 115.1512 245.0779 13.84761675 24223
PRAETORIAN SDA_619      
1 65582U 25203T   26063.54331857  .00000258  00000+0  22129-3 0  9994
2 65582  81.3020 107.6416 0009304 113.2076 247.0061 13.83930614 24850
PRAETORIAN SDA_620      
1 65583U 25203U   26063.55159168  .00000280  00000+0  24272-3 0  9995
2 65583  81.3006 107.6280 0008746 111.4964 248.7126 13.83705373 24222
PRAETORIAN SDA_621      
1 65584U 25203V   26063.53596670  .00000095  00000+0  75183-4 0  9999
2 65584  81.2995 107.5929 0008651 108.4159 251.7939 13.83786719 24224
PRAETORIAN SDA_601      
1 65585U 25203W   26063.54655127  .00000204  00000+0  17421-3 0  9996
2 65585  81.3010 107.7934 0006481 120.4386 239.7411 13.83484557 24212
