[{"OBJECT_NAME":"PRAETORIAN SDA_617","OBJECT_ID":"2025-203R","EPOCH":"2026-03-04T13:13:38.161632","MEAN_MOTION":13.83190693,"ECCENTRICITY":0.0008707,"INCLINATION":81.3011,"RA_OF_ASC_NODE":107.6443,"ARG_OF_PERICENTER":113.6053,"MEAN_ANOMALY":246.6018,"EPHEMERIS_TYPE":0,"CLASSIFICATION_TYPE":"U","NORAD_CAT_ID":65580,"ELEMENT_SET_NO":999,"REV_AT_EPOCH":2422,"BSTAR":5.2134e-5,"MEAN_MOTION_DOT":6.9e-7,"MEAN_MOTION_DDOT":0},{"OBJECT_NAME":"PRAETORIAN SDA_618","OBJECT_ID":"2025-203S","EPOCH":"2026-03-04T11:57:28.722240","MEAN_MOTION":13.84761675,"ECCENTRICITY":0.00109175,"INCLINATION":81.2996,"RA_OF_ASC_NODE":107.5462,"ARG_OF_PERICENTER":115.1512,"MEAN_ANOMALY":245.0779,"EPHEMERIS_TYPE":0,"CLASSIFICATION_TYPE":"U","NORAD_CAT_ID":65581,"ELEMENT_SET_NO":999,"REV_AT_EPOCH":2422,"BSTAR":0.00029106695,"MEAN_MOTION_DOT":3.4e-6,"MEAN_MOTION_DDOT":0},{"OBJECT_NAME":"PRAETORIAN SDA_619","OBJECT_ID":"2025-203T","EPOCH":"2026-03-04T13:02:22.724448","MEAN_MOTION":13.83930614,"ECCENTRICITY":0.0009304,"INCLINATION":81.302,"RA_OF_ASC_NODE":107.6416,"ARG_OF_PERICENTER":113.2076,"MEAN_ANOMALY":247.0061,"EPHEMERIS_TYPE":0,"CLASSIFICATION_TYPE":"U","NORAD_CAT_ID":65582,"ELEMENT_SET_NO":999,"REV_AT_EPOCH":2485,"BSTAR":0.00022129,"MEAN_MOTION_DOT":2.58e-6,"MEAN_MOTION_DDOT":0},{"OBJECT_NAME":"PRAETORIAN SDA_620","OBJECT_ID":"2025-203U","EPOCH":"2026-03-04T13:14:17.521152","MEAN_MOTION":13.83705373,"ECCENTRICITY":0.0008746,"INCLINATION":81.3006,"RA_OF_ASC_NODE":107.628,"ARG_OF_PERICENTER":111.4964,"MEAN_ANOMALY":248.7126,"EPHEMERIS_TYPE":0,"CLASSIFICATION_TYPE":"U","NORAD_CAT_ID":65583,"ELEMENT_SET_NO":999,"REV_AT_EPOCH":2422,"BSTAR":0.00024272,"MEAN_MOTION_DOT":2.8e-6,"MEAN_MOTION_DDOT":0},{"OBJECT_NAME":"PRAETORIAN SDA_621","OBJECT_ID":"2025-203V","EPOCH":"2026-03-04T12:51:47.522880","MEAN_MOTION":13.83786719,"ECCENTRICITY":0.0008651,"INCLINATION":81.2995,"RA_OF_ASC_NODE":107.5929,"ARG_OF_PERICENTER":108.4159,"MEAN_ANOMALY":251.7939,"EPHEMERIS_TYPE":0,"CLASSIFICATION_TYPE":"U","NORAD_CAT_ID":65584,"ELEMENT_SET_NO":999,"REV_AT_EPOCH":2422,"BSTAR":7.5183e-5,"MEAN_MOTION_DOT":9.5e-7,"MEAN_MOTION_DDOT":0},{"OBJECT_NAME":"PRAETORIAN SDA_601","OBJECT_ID":"2025-203W","EPOCH":"2026-03-04T13:07:02.029728","MEAN_MOTION":13.83484557,"ECCENTRICITY":0.0006481,"INCLINATION":81.301,"RA_OF_ASC_NODE":107.7934,"ARG_OF_PERICENTER":120.4386,"MEAN_ANOMALY":239.7411,"EPHEMERIS_TYPE":0,"CLASSIFICATION_TYPE":"U","NORAD_CAT_ID":65585,"ELEMENT_SET_NO":999,"REV_AT_EPOCH":2421,"BSTAR":0.00017421,"MEAN_MOTION_DOT":2.04e-6,"MEAN_MOTION_DDOT":0}]
